start=new Date('2023-04-04T00:00:00.000Z').valueOf();
sats=[{"MEAN_ELEMENT_THEORY":"SGP4","RA_OF_ASC_NODE":"358.6600","OBJECT_ID":"2021-018H","MEAN_ANOMALY":"263.3739","LAUNCH_DATE":"2021-03-11","TLE_LINE1":"1 47794U 21018H   23093.88203337  .00037455  00000-0  25185-2 0  9991","OBJECT_NAME":"STARLINK-2341","PERIOD":"95.591","CLASSIFICATION_TYPE":"U","EPHEMERIS_TYPE":"0","MEAN_MOTION":"15.06422979","APOAPSIS":"547.885","DECAY_DATE":null,"RCS_SIZE":"LARGE","ARG_OF_PERICENTER":"96.7372","FILE":"3879321","GP_ID":"229423693","MEAN_MOTION_DOT":"0.00037455","EPOCH":"2023-04-03T21:10:07.683168","NORAD_CAT_ID":"47794","PERIAPSIS":"546.401","ELEMENT_SET_NO":"999","REF_FRAME":"TEME","MEAN_MOTION_DDOT":"0.0000000000000","SITE":"AFETR","OBJECT_TYPE":"PAYLOAD","TLE_LINE2":"2 47794  53.0550 358.6600 0001071  96.7372 263.3739 15.06422979115489","SEMIMAJOR_AXIS":"6925.278","CENTER_NAME":"EARTH","REV_AT_EPOCH":"11548","INCLINATION":"53.0550","ECCENTRICITY":"0.00010710","COUNTRY_CODE":"US","BSTAR":"0.00251850000000","TIME_SYSTEM":"UTC"},{"GP_ID":"229389567","ARG_OF_PERICENTER":"117.4920","FILE":"3879059","EPOCH":"2023-04-03T03:23:12.899328","MEAN_MOTION_DOT":"0.00021048","RCS_SIZE":"LARGE","NORAD_CAT_ID":"47795","LAUNCH_DATE":"2021-03-11","MEAN_ANOMALY":"242.6152","OBJECT_NAME":"STARLINK-2347","TLE_LINE1":"1 47795U 21018J   23093.14112152  .00021048  00000-0  14294-2 0  9995","MEAN_ELEMENT_THEORY":"SGP4","OBJECT_ID":"2021-018J","RA_OF_ASC_NODE":"1.9851","APOAPSIS":"547.916","EPHEMERIS_TYPE":"0","MEAN_MOTION":"15.06355318","DECAY_DATE":null,"CLASSIFICATION_TYPE":"U","PERIOD":"95.595","ECCENTRICITY":"0.00008160","REV_AT_EPOCH":"11542","INCLINATION":"53.0555","BSTAR":"0.00142940000000","TIME_SYSTEM":"UTC","COUNTRY_CODE":"US","REF_FRAME":"TEME","SITE":"AFETR","MEAN_MOTION_DDOT":"0.0000000000000","PERIAPSIS":"546.785","ELEMENT_SET_NO":"999","OBJECT_TYPE":"PAYLOAD","TLE_LINE2":"2 47795  53.0555   1.9851 0000816 117.4920 242.6152 15.06355318115422","SEMIMAJOR_AXIS":"6925.486","CENTER_NAME":"EARTH"},{"COUNTRY_CODE":"US","TIME_SYSTEM":"UTC","BSTAR":"0.00197620000000","INCLINATION":"53.0559","REV_AT_EPOCH":"11548","ECCENTRICITY":"0.00009820","CENTER_NAME":"EARTH","TLE_LINE2":"2 47796  53.0559 358.6425 0000982  90.9625 269.1477 15.06468566115487","OBJECT_TYPE":"PAYLOAD","SEMIMAJOR_AXIS":"6925.138","ELEMENT_SET_NO":"999","PERIAPSIS":"546.323","MEAN_MOTION_DDOT":"0.0000000000000","SITE":"AFETR","REF_FRAME":"TEME","NORAD_CAT_ID":"47796","RCS_SIZE":"LARGE","MEAN_MOTION_DOT":"0.00029331","EPOCH":"2023-04-03T21:15:21.546720","FILE":"3879321","ARG_OF_PERICENTER":"90.9625","GP_ID":"229422197","CLASSIFICATION_TYPE":"U","PERIOD":"95.588","DECAY_DATE":null,"MEAN_MOTION":"15.06468566","EPHEMERIS_TYPE":"0","APOAPSIS":"547.683","RA_OF_ASC_NODE":"358.6425","OBJECT_ID":"2021-018K","MEAN_ELEMENT_THEORY":"SGP4","TLE_LINE1":"1 47796U 21018K   23093.88566605  .00029331  00000-0  19762-2 0  9991","OBJECT_NAME":"STARLINK-2373","MEAN_ANOMALY":"269.1477","LAUNCH_DATE":"2021-03-11"},{"NORAD_CAT_ID":"47797","FILE":"3879321","ARG_OF_PERICENTER":"103.1258","GP_ID":"229423449","MEAN_MOTION_DOT":"0.00015339","EPOCH":"2023-04-03T18:56:43.332288","RCS_SIZE":"LARGE","EPHEMERIS_TYPE":"0","MEAN_MOTION":"15.06377860","APOAPSIS":"548.072","DECAY_DATE":null,"PERIOD":"95.594","CLASSIFICATION_TYPE":"U","LAUNCH_DATE":"2021-03-11","MEAN_ANOMALY":"256.9859","TLE_LINE1":"1 47797U 21018L   23093.78939042  .00015339  00000-0  10470-2 0  9990","OBJECT_NAME":"STARLINK-2377","MEAN_ELEMENT_THEORY":"SGP4","RA_OF_ASC_NODE":"24.0762","OBJECT_ID":"2021-018L","BSTAR":"0.00104700000000","TIME_SYSTEM":"UTC","COUNTRY_CODE":"US","ECCENTRICITY":"0.00011420","REV_AT_EPOCH":"11511","INCLINATION":"53.0550","TLE_LINE2":"2 47797  53.0550  24.0762 0001142 103.1258 256.9859 15.06377860115119","SEMIMAJOR_AXIS":"6925.416","OBJECT_TYPE":"PAYLOAD","CENTER_NAME":"EARTH","REF_FRAME":"TEME","MEAN_MOTION_DDOT":"0.0000000000000","SITE":"AFETR","PERIAPSIS":"546.491","ELEMENT_SET_NO":"999"},{"PERIAPSIS":"546.396","ELEMENT_SET_NO":"999","REF_FRAME":"TEME","MEAN_MOTION_DDOT":"0.0000000000000","SITE":"AFETR","TLE_LINE2":"2 47798  53.0557 358.5940 0001056 101.3152 258.7956 15.06427981115485","OBJECT_TYPE":"PAYLOAD","SEMIMAJOR_AXIS":"6925.263","CENTER_NAME":"EARTH","REV_AT_EPOCH":"11548","INCLINATION":"53.0557","ECCENTRICITY":"0.00010560","COUNTRY_CODE":"US","BSTAR":"0.00192590000000","TIME_SYSTEM":"UTC","MEAN_ELEMENT_THEORY":"SGP4","RA_OF_ASC_NODE":"358.5940","OBJECT_ID":"2021-018M","LAUNCH_DATE":"2021-03-11","MEAN_ANOMALY":"258.7956","TLE_LINE1":"1 47798U 21018M   23093.89675962  .00028543  00000-0  19259-2 0  9996","OBJECT_NAME":"STARLINK-2379","PERIOD":"95.590","CLASSIFICATION_TYPE":"U","EPHEMERIS_TYPE":"0","MEAN_MOTION":"15.06427981","APOAPSIS":"547.859","DECAY_DATE":null,"RCS_SIZE":"LARGE","ARG_OF_PERICENTER":"101.3152","FILE":"3879321","GP_ID":"229423193","MEAN_MOTION_DOT":"0.00028543","EPOCH":"2023-04-03T21:31:20.031168","NORAD_CAT_ID":"47798"},{"OBJECT_TYPE":"PAYLOAD","TLE_LINE2":"2 47799  53.0571 358.6122 0000593  95.3597 264.7459 15.06411998115470","SEMIMAJOR_AXIS":"6925.312","CENTER_NAME":"EARTH","REF_FRAME":"TEME","MEAN_MOTION_DDOT":"0.0000000000000","SITE":"AFETR","PERIAPSIS":"546.766","ELEMENT_SET_NO":"999","BSTAR":"0.00238610000000","TIME_SYSTEM":"UTC","COUNTRY_CODE":"US","ECCENTRICITY":"0.00005930","REV_AT_EPOCH":"11547","INCLINATION":"53.0571","MEAN_MOTION":"15.06411998","EPHEMERIS_TYPE":"0","APOAPSIS":"547.587","DECAY_DATE":null,"PERIOD":"95.591","CLASSIFICATION_TYPE":"U","LAUNCH_DATE":"2021-03-11","MEAN_ANOMALY":"264.7459","TLE_LINE1":"1 47799U 21018N   23093.89306395  .00035450  00000-0  23861-2 0  9997","OBJECT_NAME":"STARLINK-2380","MEAN_ELEMENT_THEORY":"SGP4","RA_OF_ASC_NODE":"358.6122","OBJECT_ID":"2021-018N","NORAD_CAT_ID":"47799","FILE":"3879321","ARG_OF_PERICENTER":"95.3597","GP_ID":"229421947","MEAN_MOTION_DOT":"0.00035450","EPOCH":"2023-04-03T21:26:00.725280","RCS_SIZE":"LARGE"},{"RCS_SIZE":"LARGE","MEAN_MOTION_DOT":"0.00019734","EPOCH":"2023-04-03T02:51:26.123904","ARG_OF_PERICENTER":"109.6902","FILE":"3879059","GP_ID":"229390807","NORAD_CAT_ID":"47800","RA_OF_ASC_NODE":"2.0877","OBJECT_ID":"2021-018P","MEAN_ELEMENT_THEORY":"SGP4","TLE_LINE1":"1 47800U 21018P   23093.11905236  .00019734  00000-0  13400-2 0  9999","OBJECT_NAME":"STARLINK-2381","LAUNCH_DATE":"2021-03-11","MEAN_ANOMALY":"250.4234","CLASSIFICATION_TYPE":"U","PERIOD":"95.592","DECAY_DATE":null,"MEAN_MOTION":"15.06400601","EPHEMERIS_TYPE":"0","APOAPSIS":"548.160","INCLINATION":"53.0562","REV_AT_EPOCH":"11536","ECCENTRICITY":"0.00013700","COUNTRY_CODE":"US","TIME_SYSTEM":"UTC","BSTAR":"0.00134000000000","ELEMENT_SET_NO":"999","PERIAPSIS":"546.263","MEAN_MOTION_DDOT":"0.0000000000000","SITE":"AFETR","REF_FRAME":"TEME","CENTER_NAME":"EARTH","TLE_LINE2":"2 47800  53.0562   2.0877 0001370 109.6902 250.4234 15.06400601115363","SEMIMAJOR_AXIS":"6925.347","OBJECT_TYPE":"PAYLOAD"},{"REF_FRAME":"TEME","MEAN_MOTION_DDOT":"0.0000000000000","SITE":"AFETR","PERIAPSIS":"546.106","ELEMENT_SET_NO":"999","OBJECT_TYPE":"PAYLOAD","TLE_LINE2":"2 47801  53.0547   4.3352 0001377  80.6348 279.4797 15.06450231115391","SEMIMAJOR_AXIS":"6925.195","CENTER_NAME":"EARTH","ECCENTRICITY":"0.00013770","REV_AT_EPOCH":"11539","INCLINATION":"53.0547","BSTAR":"0.00126320000000","TIME_SYSTEM":"UTC","COUNTRY_CODE":"US","MEAN_ANOMALY":"279.4797","LAUNCH_DATE":"2021-03-11","TLE_LINE1":"1 47801U 21018Q   23093.75070340  .00018609  00000-0  12632-2 0  9995","OBJECT_NAME":"STARLINK-2382","MEAN_ELEMENT_THEORY":"SGP4","RA_OF_ASC_NODE":"4.3352","OBJECT_ID":"2021-018Q","MEAN_MOTION":"15.06450231","EPHEMERIS_TYPE":"0","APOAPSIS":"548.013","DECAY_DATE":null,"PERIOD":"95.589","CLASSIFICATION_TYPE":"U","ARG_OF_PERICENTER":"80.6348","FILE":"3879321","GP_ID":"229422949","MEAN_MOTION_DOT":"0.00018609","EPOCH":"2023-04-03T18:01:00.773760","RCS_SIZE":"LARGE","NORAD_CAT_ID":"47801"},{"PERIAPSIS":"546.083","ELEMENT_SET_NO":"999","REF_FRAME":"TEME","SITE":"AFETR","MEAN_MOTION_DDOT":"0.0000000000000","TLE_LINE2":"2 47802  53.0544  24.0400 0001427 127.4928 232.6191 15.06446327115123","OBJECT_TYPE":"PAYLOAD","SEMIMAJOR_AXIS":"6925.207","CENTER_NAME":"EARTH","REV_AT_EPOCH":"11512","INCLINATION":"53.0544","ECCENTRICITY":"0.00014270","COUNTRY_CODE":"US","BSTAR":"0.00187180000000","TIME_SYSTEM":"UTC","MEAN_ELEMENT_THEORY":"SGP4","OBJECT_ID":"2021-018R","RA_OF_ASC_NODE":"24.0400","LAUNCH_DATE":"2021-03-11","MEAN_ANOMALY":"232.6191","OBJECT_NAME":"STARLINK-2383","TLE_LINE1":"1 47802U 21018R   23093.79678370  .00027744  00000-0  18718-2 0  9998","PERIOD":"95.589","CLASSIFICATION_TYPE":"U","APOAPSIS":"548.060","EPHEMERIS_TYPE":"0","MEAN_MOTION":"15.06446327","DECAY_DATE":null,"RCS_SIZE":"LARGE","GP_ID":"229423694","ARG_OF_PERICENTER":"127.4928","FILE":"3879321","EPOCH":"2023-04-03T19:07:22.111680","MEAN_MOTION_DOT":"0.00027744","NORAD_CAT_ID":"47802"},{"CLASSIFICATION_TYPE":"U","PERIOD":"95.589","APOAPSIS":"547.853","MEAN_MOTION":"15.06447773","EPHEMERIS_TYPE":"0","DECAY_DATE":null,"MEAN_ELEMENT_THEORY":"SGP4","OBJECT_ID":"2021-018S","RA_OF_ASC_NODE":"359.3541","MEAN_ANOMALY":"261.3050","LAUNCH_DATE":"2021-03-11","OBJECT_NAME":"STARLINK-2384","TLE_LINE1":"1 47803U 21018S   23093.72721092  .00023154  00000-0  15662-2 0  9998","NORAD_CAT_ID":"47803","RCS_SIZE":"LARGE","GP_ID":"229422448","FILE":"3879321","ARG_OF_PERICENTER":"98.8067","EPOCH":"2023-04-03T17:27:11.023488","MEAN_MOTION_DOT":"0.00023154","TLE_LINE2":"2 47803  53.0558 359.3541 0001135  98.8067 261.3050 15.06447773115455","SEMIMAJOR_AXIS":"6925.202","OBJECT_TYPE":"PAYLOAD","CENTER_NAME":"EARTH","PERIAPSIS":"546.281","ELEMENT_SET_NO":"999","REF_FRAME":"TEME","SITE":"AFETR","MEAN_MOTION_DDOT":"0.0000000000000","COUNTRY_CODE":"US","BSTAR":"0.00156620000000","TIME_SYSTEM":"UTC","REV_AT_EPOCH":"11545","INCLINATION":"53.0558","ECCENTRICITY":"0.00011350"}];
